[{"OBJECT_NAME":"STARLINK-31158","OBJECT_ID":"2024-019B","EPOCH":"2026-03-09T21:12:33.105600","MEAN_MOTION":15.27541907,"ECCENTRICITY":0.00012274,"INCLINATION":43.0035,"RA_OF_ASC_NODE":247.6901,"ARG_OF_PERICENTER":275.2853,"MEAN_ANOMALY":84.7859,"EPHEMERIS_TYPE":0,"CLASSIFICATION_TYPE":"U","NORAD_CAT_ID":58854,"ELEMENT_SET_NO":999,"REV_AT_EPOCH":11911,"BSTAR":-0.00012830455,"MEAN_MOTION_DOT":-3.787e-5,"MEAN_MOTION_DDOT":0},{"OBJECT_NAME":"COSMOS 374 DEB","OBJECT_ID":"1970-089CW","EPOCH":"2026-03-09T03:15:05.416704","MEAN_MOTION":14.81622526,"ECCENTRICITY":0.02351408,"INCLINATION":62.872,"RA_OF_ASC_NODE":339.5893,"ARG_OF_PERICENTER":12.2958,"MEAN_ANOMALY":348.3731,"EPHEMERIS_TYPE":0,"CLASSIFICATION_TYPE":"U","NORAD_CAT_ID":14122,"ELEMENT_SET_NO":999,"REV_AT_EPOCH":22578,"BSTAR":0.0042555676,"MEAN_MOTION_DOT":0.00054686,"MEAN_MOTION_DDOT":0}]
